[
    {
        "Altitude(m)": 553534.5331154239,
        "Argument of Periapsis(deg)": 0.033114955553567506,
        "Eccentricity": 0.0,
        "Inclination(deg)": 53.0,
        "Latitude(deg)": 8.334180329677391,
        "Longitude(deg)": -2.6847392985741343,
        "Mean Anomaly(deg)": 10.458064337887997,
        "RAAN(deg)": 94.9507168426401,
        "Satellite Name": "Starlink Shell 1 437",
        "Satellite Number": 437,
        "Semi-Major Axis(m)": 6931778.249405717,
        "Time(s)": 950
    },
    {
        "Altitude(m)": 553516.9637184187,
        "Argument of Periapsis(deg)": 0.03346353403307874,
        "Eccentricity": 0.0,
        "Inclination(deg)": 53.0,
        "Latitude(deg)": 8.834905062849575,
        "Longitude(deg)": -2.3407482471364602,
        "Mean Anomaly(deg)": 11.084895541444656,
        "RAAN(deg)": 94.95019807256263,
        "Satellite Name": "Starlink Shell 1 437",
        "Satellite Number": 437,
        "Semi-Major Axis(m)": 6931778.249405717,
        "Time(s)": 960
    },
    {
        "Altitude(m)": 553502.1249937054,
        "Argument of Periapsis(deg)": 0.03381211251258998,
        "Eccentricity": 0.0,
        "Inclination(deg)": 53.0,
        "Latitude(deg)": 9.33522583503915,
        "Longitude(deg)": -1.995712637596662,
        "Mean Anomaly(deg)": 11.711726745001426,
        "RAAN(deg)": 94.94967930248514,
        "Satellite Name": "Starlink Shell 1 437",
        "Satellite Number": 437,
        "Semi-Major Axis(m)": 6931778.249405717,
        "Time(s)": 970
    },
    {
        "Altitude(m)": 553490.0009074303,
        "Argument of Periapsis(deg)": 0.034160690992101214,
        "Eccentricity": 0.0,
        "Inclination(deg)": 53.0,
        "Latitude(deg)": 9.835117726195083,
        "Longitude(deg)": -1.6495706885032433,
        "Mean Anomaly(deg)": 12.338557948558174,
        "RAAN(deg)": 94.94916053240767,
        "Satellite Name": "Starlink Shell 1 437",
        "Satellite Number": 437,
        "Semi-Major Axis(m)": 6931778.249405717,
        "Time(s)": 980
    },
    {
        "Altitude(m)": 553480.5741633656,
        "Argument of Periapsis(deg)": 0.034509269471612446,
        "Eccentricity": 0.0,
        "Inclination(deg)": 53.0,
        "Latitude(deg)": 10.334555583122691,
        "Longitude(deg)": -1.3022596318153168,
        "Mean Anomaly(deg)": 12.965389152114843,
        "RAAN(deg)": 94.9486417623302,
        "Satellite Name": "Starlink Shell 1 437",
        "Satellite Number": 437,
        "Semi-Major Axis(m)": 6931778.249405717,
        "Time(s)": 990
    }
]